{
    "links": {
        "self": "http://www.neowsapp.com/rest/v1/neo/54016916?api_key=iIulBulltgU6a56xZRHN4H3l9WmuAYTsLGpBGhQ2"
    },
    "id": "54016916",
    "neo_reference_id": "54016916",
    "name": "(2020 HO9)",
    "designation": "2020 HO9",
    "nasa_jpl_url": "http://ssd.jpl.nasa.gov/sbdb.cgi?sstr=54016916",
    "absolute_magnitude_h": 23.57,
    "estimated_diameter": {
        "kilometers": {
            "estimated_diameter_min": 0.0513517179,
            "estimated_diameter_max": 0.1148259319
        },
        "meters": {
            "estimated_diameter_min": 51.3517178663,
            "estimated_diameter_max": 114.8259319105
        },
        "miles": {
            "estimated_diameter_min": 0.0319084683,
            "estimated_diameter_max": 0.0713495041
        },
        "feet": {
            "estimated_diameter_min": 168.4767700445,
            "estimated_diameter_max": 376.7255104491
        }
    },
    "is_potentially_hazardous_asteroid": false,
    "close_approach_data": [
        {
            "close_approach_date": "2018-04-15",
            "close_approach_date_full": "2018-Apr-15 23:45",
            "epoch_date_close_approach": 1523835900000,
            "relative_velocity": {
                "kilometers_per_second": "21.6778923127",
                "kilometers_per_hour": "78040.4123257711",
                "miles_per_hour": "48491.2773143104"
            },
            "miss_distance": {
                "astronomical": "0.4811503249",
                "lunar": "187.1674763861",
                "kilometers": "71979063.754847963",
                "miles": "44725716.2582413694"
            },
            "orbiting_body": "Earth"
        },
        {
            "close_approach_date": "2020-05-02",
            "close_approach_date_full": "2020-May-02 01:11",
            "epoch_date_close_approach": 1588381860000,
            "relative_velocity": {
                "kilometers_per_second": "12.4273335675",
                "kilometers_per_hour": "44738.400843077",
                "miles_per_hour": "27798.7024571886"
            },
            "miss_distance": {
                "astronomical": "0.1557724143",
                "lunar": "60.5954691627",
                "kilometers": "23303221.384037541",
                "miles": "14479950.3238224258"
            },
            "orbiting_body": "Earth"
        }
    ],
    "orbital_data": {
        "orbit_id": "3",
        "orbit_determination_date": "2020-05-13 06:11:46",
        "first_observation_date": "2020-04-26",
        "last_observation_date": "2020-05-13",
        "data_arc_in_days": 17,
        "observations_used": 18,
        "orbit_uncertainty": "7",
        "minimum_orbit_intersection": ".130724",
        "jupiter_tisserand_invariant": "4.158",
        "epoch_osculation": "2459000.5",
        "eccentricity": ".3465241935676385",
        "semi_major_axis": "1.632952498029153",
        "inclination": "22.40804636683085",
        "ascending_node_longitude": "212.2570316911255",
        "orbital_period": "762.1821157851934",
        "perihelion_distance": "1.06709495051534",
        "perihelion_argument": "44.98873222186175",
        "aphelion_distance": "2.198810045542966",
        "perihelion_time": "2459011.178569067490",
        "mean_anomaly": "354.9562121903949",
        "mean_motion": ".4723280598484407",
        "equinox": "J2000",
        "orbit_class": {
            "orbit_class_type": "AMO",
            "orbit_class_description": "Near-Earth asteroid orbits similar to that of 1221 Amor",
            "orbit_class_range": "1.017 AU < q (perihelion) < 1.3 AU"
        }
    },
    "is_sentry_object": false
}